{
  "type": "FeatureCollection",
  "features": [
    {
      "type": "Feature",
      "properties": {
        "norad_id": 66639,
        "name": "STARLINK-35908",
        "group": "last-30-days",
        "lat": -33.091887377454896,
        "lon": 86.19576389534083,
        "alt_km": 451.3340097926366,
        "timestamp": "2025-12-27T20:30:58.020911+00:00",
        "meta_object_name": "STARLINK-35908",
        "meta_object_id": "2025-271Y",
        "meta_epoch": "2025-12-26T18:13:06.311712",
        "meta_mean_motion": 15.39628094,
        "meta_eccentricity": 0.00010757,
        "meta_inclination": 53.1602,
        "meta_ra_of_asc_node": 120.608,
        "meta_arg_of_pericenter": 79.5752,
        "meta_mean_anomaly": 280.5374,
        "meta_ephemeris_type": 0,
        "meta_classification_type": "U",
        "meta_norad_cat_id": 66639,
        "meta_element_set_no": 999,
        "meta_rev_at_epoch": 637,
        "meta_bstar": 0.0012582205,
        "meta_mean_motion_dot": 0.00050274,
        "meta_mean_motion_ddot": 0,
        "tle_line1": "1 66639U 25271Y   25360.75910083  .00050274  00000+0  12582-2 0  9993",
        "tle_line2": "2 66639  53.1602 120.6080 0001075  79.5752 280.5374 15.39628094  6376"
      },
      "geometry": {
        "type": "Point",
        "coordinates": [
          86.19576389534083,
          -33.091887377454896
        ]
      }
    },
    {
      "type": "Feature",
      "properties": {
        "norad_id": 66640,
        "name": "STARLINK-35921",
        "group": "last-30-days",
        "lat": -52.89692027760244,
        "lon": 17.93463212335418,
        "alt_km": 452.6615606729847,
        "timestamp": "2025-12-27T20:30:58.020923+00:00",
        "meta_object_name": "STARLINK-35921",
        "meta_object_id": "2025-271Z",
        "meta_epoch": "2025-12-27T11:34:43.418208",
        "meta_mean_motion": 15.39674834,
        "meta_eccentricity": 0.000136,
        "meta_inclination": 53.1601,
        "meta_ra_of_asc_node": 117.3018,
        "meta_arg_of_pericenter": 72.7633,
        "meta_mean_anomaly": 287.3521,
        "meta_ephemeris_type": 0,
        "meta_classification_type": "U",
        "meta_norad_cat_id": 66640,
        "meta_element_set_no": 999,
        "meta_rev_at_epoch": 648,
        "meta_bstar": 0.0015174,
        "meta_mean_motion_dot": 0.00060893,
        "meta_mean_motion_ddot": 0,
        "tle_line1": "1 66640U 25271Z   25361.48244697  .00060893  00000+0  15174-2 0  9995",
        "tle_line2": "2 66640  53.1601 117.3018 0001360  72.7633 287.3521 15.39674834  6485"
      },
      "geometry": {
        "type": "Point",
        "coordinates": [
          17.93463212335418,
          -52.89692027760244
        ]
      }
    },
    {
      "type": "Feature",
      "properties": {
        "norad_id": 66641,
        "name": "STARLINK-35923",
        "group": "last-30-days",
        "lat": 52.681732830948924,
        "lon": -165.237286228619,
        "alt_km": 439.3756640787915,
        "timestamp": "2025-12-27T20:30:58.020934+00:00",
        "meta_object_name": "STARLINK-35923",
        "meta_object_id": "2025-271AA",
        "meta_epoch": "2025-12-27T12:00:02.000160",
        "meta_mean_motion": 15.39604889,
        "meta_eccentricity": 0.0001177,
        "meta_inclination": 53.1603,
        "meta_ra_of_asc_node": 116.8634,
        "meta_arg_of_pericenter": 80.648,
        "meta_mean_anomaly": 195.3588,
        "meta_ephemeris_type": 0,
        "meta_classification_type": "U",
        "meta_norad_cat_id": 66641,
        "meta_element_set_no": 999,
        "meta_rev_at_epoch": 607,
        "meta_bstar": 0.00020102,
        "meta_mean_motion_dot": 7.645e-05,
        "meta_mean_motion_ddot": 0,
        "tle_line1": "1 66641U 25271AA  25361.50002315  .00007645  00000+0  20102-3 0  9992",
        "tle_line2": "2 66641  53.1603 116.8634 0001177  80.6480 195.3588 15.39604889  6079"
      },
      "geometry": {
        "type": "Point",
        "coordinates": [
          -165.237286228619,
          52.681732830948924
        ]
      }
    },
    {
      "type": "Feature",
      "properties": {
        "norad_id": 66642,
        "name": "STARLINK-35926",
        "group": "last-30-days",
        "lat": 43.720388048808985,
        "lon": 161.04238932286947,
        "alt_km": 440.69678337192,
        "timestamp": "2025-12-27T20:30:58.020944+00:00",
        "meta_object_name": "STARLINK-35926",
        "meta_object_id": "2025-271AB",
        "meta_epoch": "2025-12-27T12:00:02.000160",
        "meta_mean_motion": 15.39604713,
        "meta_eccentricity": 0.0001231,
        "meta_inclination": 53.1604,
        "meta_ra_of_asc_node": 116.9119,
        "meta_arg_of_pericenter": 84.5134,
        "meta_mean_anomaly": 167.5824,
        "meta_ephemeris_type": 0,
        "meta_classification_type": "U",
        "meta_norad_cat_id": 66642,
        "meta_element_set_no": 999,
        "meta_rev_at_epoch": 607,
        "meta_bstar": 0.0002445,
        "meta_mean_motion_dot": 9.388e-05,
        "meta_mean_motion_ddot": 0,
        "tle_line1": "1 66642U 25271AB  25361.50002315  .00009388  00000+0  24450-3 0  9999",
        "tle_line2": "2 66642  53.1604 116.9119 0001231  84.5134 167.5824 15.39604713  6070"
      },
      "geometry": {
        "type": "Point",
        "coordinates": [
          161.04238932286947,
          43.720388048808985
        ]
      }
    },
    {
      "type": "Feature",
      "properties": {
        "norad_id": 66643,
        "name": "STARLINK-35918",
        "group": "last-30-days",
        "lat": -13.907629119614937,
        "lon": 104.69616036471139,
        "alt_km": 450.55010384492834,
        "timestamp": "2025-12-27T20:30:58.020954+00:00",
        "meta_object_name": "STARLINK-35918",
        "meta_object_id": "2025-271AC",
        "meta_epoch": "2025-12-27T11:14:39.543936",
        "meta_mean_motion": 15.39635581,
        "meta_eccentricity": 0.0001776,
        "meta_inclination": 53.1611,
        "meta_ra_of_asc_node": 117.2152,
        "meta_arg_of_pericenter": 123.4999,
        "meta_mean_anomaly": 236.6176,
        "meta_ephemeris_type": 0,
        "meta_classification_type": "U",
        "meta_norad_cat_id": 66643,
        "meta_element_set_no": 999,
        "meta_rev_at_epoch": 648,
        "meta_bstar": 0.0011654,
        "meta_mean_motion_dot": 0.00046525,
        "meta_mean_motion_ddot": 0,
        "tle_line1": "1 66643U 25271AC  25361.46851324  .00046525  00000+0  11654-2 0  9992",
        "tle_line2": "2 66643  53.1611 117.2152 0001776 123.4999 236.6176 15.39635581  6486"
      },
      "geometry": {
        "type": "Point",
        "coordinates": [
          104.69616036471139,
          -13.907629119614937
        ]
      }
    },
    {
      "type": "Feature",
      "properties": {
        "norad_id": 66644,
        "name": "STARLINK-35938",
        "group": "last-30-days",
        "lat": 42.67001248326003,
        "lon": 158.95960958466998,
        "alt_km": 440.70296193591184,
        "timestamp": "2025-12-27T20:30:58.020966+00:00",
        "meta_object_name": "STARLINK-35938",
        "meta_object_id": "2025-271AD",
        "meta_epoch": "2025-12-27T12:00:02.000160",
        "meta_mean_motion": 15.39606217,
        "meta_eccentricity": 0.0001326,
        "meta_inclination": 53.1603,
        "meta_ra_of_asc_node": 116.9159,
        "meta_arg_of_pericenter": 64.6145,
        "meta_mean_anomaly": 185.6276,
        "meta_ephemeris_type": 0,
        "meta_classification_type": "U",
        "meta_norad_cat_id": 66644,
        "meta_element_set_no": 999,
        "meta_rev_at_epoch": 596,
        "meta_bstar": 0.00033929,
        "meta_mean_motion_dot": 0.00013189,
        "meta_mean_motion_ddot": 0,
        "tle_line1": "1 66644U 25271AD  25361.50002315  .00013189  00000+0  33929-3 0  9996",
        "tle_line2": "2 66644  53.1603 116.9159 0001326  64.6145 185.6276 15.39606217  5961"
      },
      "geometry": {
        "type": "Point",
        "coordinates": [
          158.95960958466998,
          42.67001248326003
        ]
      }
    },
    {
      "type": "Feature",
      "properties": {
        "norad_id": 66645,
        "name": "SHENZHOU-22",
        "group": "last-30-days",
        "lat": 19.288389303329428,
        "lon": 81.55397060125001,
        "alt_km": 379.30701567698543,
        "timestamp": "2025-12-27T20:30:58.020976+00:00",
        "meta_object_name": "SHENZHOU-22",
        "meta_object_id": "2025-272A",
        "meta_epoch": "2025-12-27T06:02:45.823200",
        "meta_mean_motion": 15.59750285,
        "meta_eccentricity": 0.0008745,
        "meta_inclination": 41.4675,
        "meta_ra_of_asc_node": 288.5662,
        "meta_arg_of_pericenter": 157.7703,
        "meta_mean_anomaly": 202.3516,
        "meta_ephemeris_type": 0,
        "meta_classification_type": "U",
        "meta_norad_cat_id": 66645,
        "meta_element_set_no": 999,
        "meta_rev_at_epoch": 26598,
        "meta_bstar": 0.00024488937,
        "meta_mean_motion_dot": 0.0001992,
        "meta_mean_motion_ddot": 0,
        "tle_line1": "1 66645U 25272A   25361.25191925  .00019920  00000+0  24489-3 0  9996",
        "tle_line2": "2 66645  41.4675 288.5662 0008745 157.7703 202.3516 15.59750285265983"
      },
      "geometry": {
        "type": "Point",
        "coordinates": [
          81.55397060125001,
          19.288389303329428
        ]
      }
    }
  ]
}